ONEWEB-0410             
1 51622U 22012A   23346.07278944  .00000100  00000+0  22509-3 0  9993
2 51622  87.9197 188.3783 0002161  58.2258 301.9084 13.17649409 94087
ONEWEB-0411             
1 51623U 22012B   23346.11968478  .00000192  00000+0  51294-3 0  9991
2 51623  87.8915 218.5873 0001698  86.1128 274.0194 13.10369337 90339
ONEWEB-0415             
1 51624U 22012C   23345.73464529  .00000274  00000+0  74934-3 0  9994
2 51624  87.8919 218.6918 0001749  87.0603 273.0724 13.10372152 89009
ONEWEB-0416             
1 51625U 22012D   23346.12779635 -.00000147  00000+0 -45809-3 0  9996
2 51625  87.8915 218.6006 0001439  79.1198 281.0091 13.10369689 90381
ONEWEB-0422             
1 51626U 22012E   23345.92935222  .00000115  00000+0  26350-3 0  9993
2 51626  87.9207 188.4021 0000929 116.9114 243.2112 13.17647815 92887
ONEWEB-0423             
1 51627U 22012F   23346.07490420  .00000032  00000+0  50121-4 0  9999
2 51627  87.9209 188.3707 0001458  82.8901 277.2396 13.17650198 94086
ONEWEB-0425             
1 51628U 22012G   23346.13753894 -.00000500  00000+0 -14694-2 0  9999
2 51628  87.8916 218.5885 0001369  61.8803 298.2462 13.10369644 90385
ONEWEB-0428             
1 51629U 22012H   23346.11806135  .00000379  00000+0  10486-2 0  9992
2 51629  87.8916 218.6041 0001319  90.2266 269.9013 13.10368295 90338
